NORAD_CAT_ID,OBJECT_NAME,OBJECT_TYPE,EPOCH,MEAN_MOTION,ECCENTRICITY,INCLINATION,RA_OF_ASC_NODE,ARG_OF_PERICENTER,MEAN_ANOMALY,BSTAR,MEAN_MOTION_DOT,MEAN_MOTION_DDOT,TLE_LINE0,TLE_LINE1,TLE_LINE2,SEMIMAJOR_AXIS,PERIOD,APOGEE,PERIGEE,DECAYED
52093.0,STARLINK-3673,PAYLOAD,2023-12-28 10:34:39,15.08837359,0.0001771,53.2191,90.5673,113.6967,246.4211,0.00010285,1.349e-05,0.0,0 STARLINK-3673,1 52093U 22029F   23362.44073842  .00001349  00000-0  10285-3 0  9998,2 52093  53.2191  90.5673 0001771 113.6967 246.4211 15.08837359 99547,6917.888,95.438,540.979,538.528,0.0
52093.0,STARLINK-3673,PAYLOAD,2023-12-28 13:45:26,15.08839386,0.0001557,53.2182,89.9738,75.7079,284.4086,0.00014726,2.056e-05,0.0,0 STARLINK-3673,1 52093U 22029F   23362.57321871  .00002056  00000-0  14726-3 0  9990,2 52093  53.2182  89.9738 0001557  75.7079 284.4086 15.08839386 99561,6917.882,95.438,540.824,538.67,0.0
52093.0,STARLINK-3673,PAYLOAD,2023-12-29 12:00:50,15.08842231,0.0001579,53.2181,85.8117,80.5723,279.5448,6.0031e-06,-1.92e-06,0.0,0 STARLINK-3673,1 52093U 22029F   23363.50058203 -.00000192  00000-0  60031-5 0  9992,2 52093  53.2181  85.8117 0001579  80.5723 279.5448 15.08842231 99706,6917.874,95.437,540.831,538.646,0.0
52093.0,STARLINK-3673,PAYLOAD,2023-12-30 11:51:36,15.0884839,0.0001403,53.2172,81.3493,84.4816,275.6336,0.00014862,2.079e-05,0.0,0 STARLINK-3673,1 52093U 22029F   23364.49417339  .00002079  00000-0  14862-3 0  9994,2 52093  53.2172  81.3493 0001403  84.4816 275.6336 15.08848390 99857,6917.855,95.437,540.69,538.749,0.0
52093.0,STARLINK-3673,PAYLOAD,2023-12-31 11:42:24,15.08837716,0.0001502,53.2176,76.8894,73.1802,286.9354,5.5191e-05,5.9e-06,0.0,0 STARLINK-3673,1 52093U 22029F   23365.48778349  .00000590  00000-0  55191-4 0  9992,2 52093  53.2176  76.8894 0001502  73.1802 286.9354 15.08837716100000,6917.887,95.438,540.791,538.713,0.0
52093.0,STARLINK-3673,PAYLOAD,2024-01-01 09:57:48,15.08844221,0.0001416,53.2174,72.7244,95.1342,264.9811,1.6331e-05,-2.8e-07,0.0,0 STARLINK-3673,1 52093U 22029F   24001.41513962 -.00000028  00000-0  16331-4 0  9991,2 52093  53.2174  72.7244 0001416  95.1342 264.9811 15.08844221100147,6917.867,95.437,540.712,538.753,0.0
52093.0,STARLINK-3673,PAYLOAD,2024-01-02 11:23:58,15.08837017,0.0001394,53.2173,67.9677,93.6728,266.4423,8.6542e-05,1.09e-05,0.0,0 STARLINK-3673,1 52093U 22029F   24002.47498392  .00001090  00000-0  86542-4 0  9997,2 52093  53.2173  67.9677 0001394  93.6728 266.4423 15.08837017100307,6917.89,95.438,540.719,538.79,0.0
52093.0,STARLINK-3673,PAYLOAD,2024-01-03 12:50:08,15.08839811,0.0001383,53.2175,63.2089,96.7397,263.3752,3.6506e-05,2.93e-06,0.0,0 STARLINK-3673,1 52093U 22029F   24003.53482617  .00000293  00000-0  36506-4 0  9997,2 52093  53.2175  63.2089 0001383  96.7397 263.3752 15.08839811100461,6917.881,95.438,540.703,538.789,0.0
52093.0,STARLINK-3673,PAYLOAD,2024-01-04 12:40:55,15.08844159,0.0001292,53.2173,58.7489,92.8945,267.2195,0.00010315,1.354e-05,0.0,0 STARLINK-3673,1 52093U 22029F   24004.52842316  .00001354  00000-0  10315-3 0  9991,2 52093  53.2173  58.7489 0001292  92.8945 267.2195 15.08844159100619,6917.868,95.437,540.626,538.839,0.0
52093.0,STARLINK-3673,PAYLOAD,2024-01-05 10:56:20,15.08842747,0.000148,53.2177,54.588,80.8445,279.2714,7.7586e-05,9.47e-06,0.0,0 STARLINK-3673,1 52093U 22029F   24005.45578738  .00000947  00000-0  77586-4 0  9999,2 52093  53.2177  54.5880 0001480  80.8445 279.2714 15.08842747100759,6917.872,95.437,540.761,538.713,0.0
52093.0,STARLINK-3673,PAYLOAD,2024-01-05 12:31:42,15.08844966,0.0001399,53.2175,54.2886,86.8425,273.2727,9.5293e-05,1.229e-05,0.0,0 STARLINK-3673,1 52093U 22029F   24005.52202491  .00001229  00000-0  95293-4 0  9996,2 52093  53.2175  54.2886 0001399  86.8425 273.2727 15.08844966100767,6917.865,95.437,540.698,538.762,0.0
52093.0,STARLINK-3673,PAYLOAD,2024-01-06 02:50:11,15.08837289,0.0001526,53.2179,51.612,97.522,262.5946,1.8595e-05,8e-08,0.0,0 STARLINK-3673,1 52093U 22029F   24006.11819184  .00000008  00000-0  18595-4 0  9999,2 52093  53.2179  51.6120 0001526  97.5220 262.5946 15.08837289100851,6917.889,95.438,540.809,538.698,0.0
52093.0,STARLINK-3673,PAYLOAD,2024-01-06 09:11:44,15.08839308,0.0001604,53.2177,50.4236,96.1499,263.9676,3.1459e-05,2.13e-06,0.0,0 STARLINK-3673,1 52093U 22029F   24006.38315060  .00000213  00000-0  31459-4 0  9994,2 52093  53.2177  50.4236 0001604  96.1499 263.9676 15.08839308100897,6917.883,95.438,540.857,538.638,0.0
52093.0,STARLINK-3673,PAYLOAD,2024-01-07 02:40:58,15.08844022,0.0001467,53.2173,47.1516,93.3965,266.7195,4.136e-05,3.7e-06,0.0,0 STARLINK-3673,1 52093U 22029F   24007.11178709  .00000370  00000-0  41360-4 0  9999,2 52093  53.2173  47.1516 0001467  93.3965 266.7195 15.08844022101001,6917.868,95.437,540.748,538.718,0.0
52093.0,STARLINK-3673,PAYLOAD,2024-01-07 09:02:30,15.08846826,0.0001605,53.2177,45.963,87.1414,272.9761,7.8707e-05,9.65e-06,0.0,0 STARLINK-3673,1 52093U 22029F   24007.37674432  .00000965  00000-0  78707-4 0  9996,2 52093  53.2177  45.9630 0001605  87.1414 272.9761 15.08846826101048,6917.86,95.437,540.835,538.614,0.0
52093.0,STARLINK-3673,PAYLOAD,2024-01-07 23:20:59,15.08836846,0.0001592,53.2171,43.2868,93.1523,266.9651,5.3763e-05,5.68e-06,0.0,0 STARLINK-3673,1 52093U 22029F   24007.97291079  .00000568  00000-0  53763-4 0  9998,2 52093  53.2171  43.2868 0001592  93.1523 266.9651 15.08836846101131,6917.89,95.438,540.856,538.654,0.0
52093.0,STARLINK-3673,PAYLOAD,2024-01-08 12:04:04,15.08841283,0.0001544,53.2171,40.9067,94.8206,265.2963,6.4416e-05,7.37e-06,0.0,0 STARLINK-3673,1 52093U 22029F   24008.50282784  .00000737  00000-0  64416-4 0  9996,2 52093  53.2171  40.9067 0001544  94.8206 265.2963 15.08841283101217,6917.876,95.437,540.81,538.673,0.0
52093.0,STARLINK-3673,PAYLOAD,2024-01-09 08:44:05,15.08843354,0.0001519,53.2174,37.0383,102.2317,257.8845,7.6237e-06,-1.67e-06,0.0,0 STARLINK-3673,1 52093U 22029F   24009.36394872 -.00000167  00000-0  76237-5 0  9996,2 52093  53.2174  37.0383 0001519 102.2317 257.8845 15.08843354101348,6917.87,95.437,540.786,538.684,0.0
52093.0,STARLINK-3673,PAYLOAD,2024-01-10 06:59:29,15.08838765,0.0001429,53.2174,32.875,102.4396,257.6756,2.1392e-05,5.3e-07,0.0,0 STARLINK-3673,1 52093U 22029F   24010.29131266  .00000053  00000-0  21392-4 0  9990,2 52093  53.2174  32.8750 0001429 102.4396 257.6756 15.08838765101482,6917.884,95.438,540.738,538.761,0.0
52093.0,STARLINK-3673,PAYLOAD,2024-01-11 10:01:02,15.08844515,0.0001415,53.2176,27.8237,86.5538,273.5616,0.00013408,1.847e-05,0.0,0 STARLINK-3673,1 52093U 22029F   24011.41739032  .00001847  00000-0  13408-3 0  9990,2 52093  53.2176  27.8237 0001415  86.5538 273.5616 15.08844515101654,6917.867,95.437,540.71,538.753,0.0
52093.0,STARLINK-3673,PAYLOAD,2024-01-12 09:51:50,15.08840574,0.0001526,53.2186,23.3648,73.0074,287.1085,6.6939e-05,7.78e-06,0.0,0 STARLINK-3673,1 52093U 22029F   24012.41099685  .00000778  00000-0  66939-4 0  9994,2 52093  53.2186  23.3648 0001526  73.0074 287.1085 15.08840574101800,6917.879,95.438,540.799,538.688,0.0
52093.0,STARLINK-3673,PAYLOAD,2024-01-13 09:42:36,15.08853477,0.0001536,53.2179,18.9021,91.782,268.3348,0.00010467,1.379e-05,0.0,0 STARLINK-3673,1 52093U 22029F   24013.40458904  .00001379  00000-0  10467-3 0  9999,2 52093  53.2179  18.9021 0001536  91.7820 268.3348 15.08853477101959,6917.839,95.437,540.767,538.642,0.0
52093.0,STARLINK-3673,PAYLOAD,2024-01-14 09:33:24,15.08837142,0.0001754,53.2205,14.4338,87.4047,272.7146,3.4876e-05,2.67e-06,0.0,0 STARLINK-3673,1 52093U 22029F   24014.39820200  .00000267  00000-0  34876-4 0  9996,2 52093  53.2205  14.4338 0001754  87.4047 272.7146 15.08837142102100,6917.889,95.438,540.968,538.541,0.0
52093.0,STARLINK-3673,PAYLOAD,2024-01-15 03:02:38,15.08850335,0.000138,53.2176,11.166,111.1255,248.9885,3.0135e-05,1.92e-06,0.0,0 STARLINK-3673,1 52093U 22029F   24015.12683352  .00000192  00000-0  30135-4 0  9994,2 52093  53.2176  11.1660 0001380 111.1255 248.9885 15.08850335102216,6917.849,95.437,540.668,538.759,0.0
52093.0,STARLINK-3673,PAYLOAD,2024-01-15 09:24:10,15.0885653,0.0001588,53.2188,9.9755,117.2607,242.8547,7.4408e-05,8.97e-06,0.0,0 STARLINK-3673,1 52093U 22029F   24015.39178715  .00000897  00000-0  74408-4 0  9998,2 52093  53.2188   9.9755 0001588 117.2607 242.8547 15.08856530102252,6917.83,95.437,540.793,538.596,0.0
52093.0,STARLINK-3673,PAYLOAD,2024-01-16 09:14:58,15.08837125,0.0001368,53.2195,5.5177,162.8803,197.2235,-1.571e-05,-5.38e-06,0.0,0 STARLINK-3673,1 52093U 22029F   24016.38539545 -.00000538  00000-0 -15710-4 0  9995,2 52093  53.2195   5.5177 0001368 162.8803 197.2235 15.08837125102403,6917.889,95.438,540.701,538.808,0.0
52093.0,STARLINK-3673,PAYLOAD,2024-01-17 04:19:30,15.08943533,0.0001015,53.2174,1.9511,95.8273,264.2835,0.0013436,0.00021221,0.0,0 STARLINK-3673,1 52093U 22029F   24017.18021879  .00021221  00000-0  13436-2 0  9991,2 52093  53.2174   1.9511 0001015  95.8273 264.2835 15.08943533102522,6917.564,95.431,540.131,538.727,0.0
52093.0,STARLINK-3673,PAYLOAD,2024-01-17 13:51:53,15.08834251,0.0001462,53.218,0.1668,96.3367,263.7792,-0.00026966,-4.576e-05,0.0,0 STARLINK-3673,1 52093U 22029F   24017.57770762 -.00004576  00000-0 -26966-3 0  9995,2 52093  53.2180   0.1668 0001462  96.3367 263.7792 15.08834251102587,6917.898,95.438,540.774,538.752,0.0
52093.0,STARLINK-3673,PAYLOAD,2024-01-18 08:56:31,15.08834915,0.0001419,53.2179,356.5982,101.8281,258.287,-0.00010294,-1.926e-05,0.0,0 STARLINK-3673,1 52093U 22029F   24018.37259181 -.00001926  00000-0 -10294-3 0  9994,2 52093  53.2179 356.5982 0001419 101.8281 258.2870 15.08834915102708,6917.896,95.438,540.743,538.779,0.0
52093.0,STARLINK-3673,PAYLOAD,2024-01-18 21:39:36,15.08856284,0.0001296,53.2173,354.2168,104.956,255.1576,-0.00090582,-0.00014681,0.0,0 STARLINK-3673,1 52093U 22029F   24018.90250361 -.00014681  00000-0 -90582-3 0  9994,2 52093  53.2173 354.2168 0001296 104.9560 255.1576 15.08856284102780,6917.831,95.437,540.592,538.799,0.0
